{"type": "FeatureCollection", "features": [{"type": "Feature", "properties": {"norad_id": 24946, "name": "IRIDIUM 33", "group": "iridium-33-debris", "lat": 32.4237805647436, "lon": 72.20132125133881, "alt_km": 777.793820434169, "timestamp": "2025-12-08T17:43:05.321239+00:00", "meta": {"OBJECT_NAME": "IRIDIUM 33", "OBJECT_ID": "1997-051C", "EPOCH": "2025-12-08T07:31:33.752640", "MEAN_MOTION": 14.3503278, "ECCENTRICITY": 0.0006551, "INCLINATION": 86.387, "RA_OF_ASC_NODE": 70.0794, "ARG_OF_PERICENTER": 216.8885, "MEAN_ANOMALY": 143.1862, "EPHEMERIS_TYPE": 0, "CLASSIFICATION_TYPE": "U", "NORAD_CAT_ID": 24946, "ELEMENT_SET_NO": 999, "REV_AT_EPOCH": 47771, "BSTAR": 0.00023633187, "MEAN_MOTION_DOT": 6.93e-06, "MEAN_MOTION_DDOT": 0}, "tle": {"line1": "1 24946U 97051C   25342.31358510  .00000693  00000+0  23633-3 0  9996", "line2": "2 24946  86.3870  70.0794 0006551 216.8885 143.1862 14.35032780477715"}}, "geometry": {"type": "Point", "coordinates": [72.20132125133881, 32.4237805647436]}}, {"type": "Feature", "properties": {"norad_id": 33773, "name": "IRIDIUM 33 DEB", "group": "iridium-33-debris", "lat": -51.48642275157356, "lon": -113.17926996482988, "alt_km": 752.3516866704949, "timestamp": "2025-12-08T17:43:05.321286+00:00", "meta": {"OBJECT_NAME": "IRIDIUM 33 DEB", "OBJECT_ID": "1997-051L", "EPOCH": "2025-12-08T06:39:55.415808", "MEAN_MOTION": 14.43242992, "ECCENTRICITY": 0.00120848, "INCLINATION": 86.4014, "RA_OF_ASC_NODE": 62.4803, "ARG_OF_PERICENTER": 159.7195, "MEAN_ANOMALY": 200.4489, "EPHEMERIS_TYPE": 0, "CLASSIFICATION_TYPE": "U", "NORAD_CAT_ID": 33773, "ELEMENT_SET_NO": 999, "REV_AT_EPOCH": 88283, "BSTAR": 0.00058989165, "MEAN_MOTION_DOT": 2.005e-05, "MEAN_MOTION_DDOT": 0}, "tle": {"line1": "1 33773U 97051L   25342.27772472  .00002005  00000+0  58989-3 0  9997", "line2": "2 33773  86.4014  62.4803 0012084 159.7195 200.4489 14.43242992882839"}}, "geometry": {"type": "Point", "coordinates": [-113.17926996482988, -51.48642275157356]}}, {"type": "Feature", "properties": {"norad_id": 33775, "name": "IRIDIUM 33 DEB", "group": "iridium-33-debris", "lat": -19.419431469160923, "lon": 49.9773770772732, "alt_km": 768.6612284857756, "timestamp": "2025-12-08T17:43:05.321305+00:00", "meta": {"OBJECT_NAME": "IRIDIUM 33 DEB", "OBJECT_ID": "1997-051N", "EPOCH": "2025-12-08T06:28:37.020288", "MEAN_MOTION": 14.41454462, "ECCENTRICITY": 0.00137722, "INCLINATION": 86.3641, "RA_OF_ASC_NODE": 51.4617, "ARG_OF_PERICENTER": 168.5909, "MEAN_ANOMALY": 263.042, "EPHEMERIS_TYPE": 0, "CLASSIFICATION_TYPE": "U", "NORAD_CAT_ID": 33775, "ELEMENT_SET_NO": 999, "REV_AT_EPOCH": 88076, "BSTAR": 0.00063285895, "MEAN_MOTION_DOT": 2.074e-05, "MEAN_MOTION_DDOT": 0}, "tle": {"line1": "1 33775U 97051N   25342.26987292  .00002074  00000+0  63286-3 0  9998", "line2": "2 33775  86.3641  51.4617 0013772 168.5909 263.0420 14.41454462880768"}}, "geometry": {"type": "Point", "coordinates": [49.9773770772732, -19.419431469160923]}}, {"type": "Feature", "properties": {"norad_id": 33776, "name": "IRIDIUM 33 DEB", "group": "iridium-33-debris", "lat": -76.50797992303156, "lon": -82.34804106991633, "alt_km": 765.829635250212, "timestamp": "2025-12-08T17:43:05.321320+00:00", "meta": {"OBJECT_NAME": "IRIDIUM 33 DEB", "OBJECT_ID": "1997-051P", "EPOCH": "2025-12-08T06:47:28.218336", "MEAN_MOTION": 14.38223227, "ECCENTRICITY": 0.00138237, "INCLINATION": 86.4037, "RA_OF_ASC_NODE": 82.6473, "ARG_OF_PERICENTER": 205.5419, "MEAN_ANOMALY": 215.4704, "EPHEMERIS_TYPE": 0, "CLASSIFICATION_TYPE": "U", "NORAD_CAT_ID": 33776, "ELEMENT_SET_NO": 999, "REV_AT_EPOCH": 88018, "BSTAR": 0.0006296124, "MEAN_MOTION_DOT": 1.933e-05, "MEAN_MOTION_DDOT": 0}, "tle": {"line1": "1 33776U 97051P   25342.28296549  .00001933  00000+0  62961-3 0  9991", "line2": "2 33776  86.4037  82.6473 0013823 205.5419 215.4704 14.38223227880181"}}, "geometry": {"type": "Point", "coordinates": [-82.34804106991633, -76.50797992303156]}}, {"type": "Feature", "properties": {"norad_id": 33777, "name": "IRIDIUM 33 DEB", "group": "iridium-33-debris", "lat": 25.09753522507579, "lon": -144.7559084673938, "alt_km": 708.3344284422474, "timestamp": "2025-12-08T17:43:05.321333+00:00", "meta": {"OBJECT_NAME": "IRIDIUM 33 DEB", "OBJECT_ID": "1997-051Q", "EPOCH": "2025-12-08T05:27:34.689312", "MEAN_MOTION": 14.55562851, "ECCENTRICITY": 0.00050859, "INCLINATION": 86.3784, "RA_OF_ASC_NODE": 37.1661, "ARG_OF_PERICENTER": 270.4985, "MEAN_ANOMALY": 89.5639, "EPHEMERIS_TYPE": 0, "CLASSIFICATION_TYPE": "U", "NORAD_CAT_ID": 33777, "ELEMENT_SET_NO": 999, "REV_AT_EPOCH": 88468, "BSTAR": 0.0013169276, "MEAN_MOTION_DOT": 5.76e-05, "MEAN_MOTION_DDOT": 0}, "tle": {"line1": "1 33777U 97051Q   25342.22748483  .00005760  00000+0  13169-2 0  9992", "line2": "2 33777  86.3784  37.1661 0005085 270.4985  89.5639 14.55562851884688"}}, "geometry": {"type": "Point", "coordinates": [-144.7559084673938, 25.09753522507579]}}, {"type": "Feature", "properties": {"norad_id": 33850, "name": "IRIDIUM 33 DEB", "group": "iridium-33-debris", "lat": -48.07909872747466, "lon": 27.814614469186896, "alt_km": 764.6717484597139, "timestamp": "2025-12-08T17:43:05.321346+00:00", "meta": {"OBJECT_NAME": "IRIDIUM 33 DEB", "OBJECT_ID": "1997-051T", "EPOCH": "2025-12-08T04:54:50.357664", "MEAN_MOTION": 14.42132512, "ECCENTRICITY": 0.00117815, "INCLINATION": 86.3419, "RA_OF_ASC_NODE": 32.1296, "ARG_OF_PERICENTER": 175.0794, "MEAN_ANOMALY": 248.6747, "EPHEMERIS_TYPE": 0, "CLASSIFICATION_TYPE": "U", "NORAD_CAT_ID": 33850, "ELEMENT_SET_NO": 999, "REV_AT_EPOCH": 88087, "BSTAR": 0.00050349407, "MEAN_MOTION_DOT": 1.676e-05, "MEAN_MOTION_DDOT": 0}, "tle": {"line1": "1 33850U 97051T   25342.20474951  .00001676  00000+0  50349-3 0  9992", "line2": "2 33850  86.3419  32.1296 0011781 175.0794 248.6747 14.42132512880870"}}, "geometry": {"type": "Point", "coordinates": [27.814614469186896, -48.07909872747466]}}, {"type": "Feature", "properties": {"norad_id": 33853, "name": "IRIDIUM 33 DEB", "group": "iridium-33-debris", "lat": -54.03945242559908, "lon": 177.10119719433828, "alt_km": 758.0401361457052, "timestamp": "2025-12-08T17:43:05.321358+00:00", "meta": {"OBJECT_NAME": "IRIDIUM 33 DEB", "OBJECT_ID": "1997-051W", "EPOCH": "2025-12-08T01:24:38.034720", "MEAN_MOTION": 13.99017813, "ECCENTRICITY": 0.02068972, "INCLINATION": 85.9997, "RA_OF_ASC_NODE": 351.864, "ARG_OF_PERICENTER": 250.3093, "MEAN_ANOMALY": 164.3037, "EPHEMERIS_TYPE": 0, "CLASSIFICATION_TYPE": "U", "NORAD_CAT_ID": 33853, "ELEMENT_SET_NO": 999, "REV_AT_EPOCH": 85280, "BSTAR": 0.002745939, "MEAN_MOTION_DOT": 4.783e-05, "MEAN_MOTION_DDOT": 0}, "tle": {"line1": "1 33853U 97051W   25342.05877355  .00004783  00000+0  27459-2 0  9990", "line2": "2 33853  85.9997 351.8640 0206897 250.3093 164.3037 13.99017813852801"}}, "geometry": {"type": "Point", "coordinates": [177.10119719433828, -54.03945242559908]}}, {"type": "Feature", "properties": {"norad_id": 33860, "name": "IRIDIUM 33 DEB", "group": "iridium-33-debris", "lat": -63.13006998864518, "lon": -143.82037186733916, "alt_km": 680.5370919946536, "timestamp": "2025-12-08T17:43:05.321370+00:00", "meta": {"OBJECT_NAME": "IRIDIUM 33 DEB", "OBJECT_ID": "1997-051AD", "EPOCH": "2025-12-08T03:45:46.231776", "MEAN_MOTION": 14.67277261, "ECCENTRICITY": 0.00080497, "INCLINATION": 86.3837, "RA_OF_ASC_NODE": 29.2665, "ARG_OF_PERICENTER": 13.4779, "MEAN_ANOMALY": 40.4373, "EPHEMERIS_TYPE": 0, "CLASSIFICATION_TYPE": "U", "NORAD_CAT_ID": 33860, "ELEMENT_SET_NO": 999, "REV_AT_EPOCH": 88655, "BSTAR": 0.0015591643, "MEAN_MOTION_DOT": 8.818e-05, "MEAN_MOTION_DDOT": 0}, "tle": {"line1": "1 33860U 97051AD  25342.15678509  .00008818  00000+0  15592-2 0  9997", "line2": "2 33860  86.3837  29.2665 0008049  13.4779  40.4373 14.67277261886555"}}, "geometry": {"type": "Point", "coordinates": [-143.82037186733916, -63.13006998864518]}}, {"type": "Feature", "properties": {"norad_id": 33862, "name": "IRIDIUM 33 DEB", "group": "iridium-33-debris", "lat": -68.41296684492148, "lon": -131.5727076424696, "alt_km": 707.2178569481321, "timestamp": "2025-12-08T17:43:05.321383+00:00", "meta": {"OBJECT_NAME": "IRIDIUM 33 DEB", "OBJECT_ID": "1997-051AF", "EPOCH": "2025-12-08T05:26:46.118688", "MEAN_MOTION": 14.69362788, "ECCENTRICITY": 0.00538173, "INCLINATION": 86.4089, "RA_OF_ASC_NODE": 39.52, "ARG_OF_PERICENTER": 84.2667, "MEAN_ANOMALY": 341.1904, "EPHEMERIS_TYPE": 0, "CLASSIFICATION_TYPE": "U", "NORAD_CAT_ID": 33862, "ELEMENT_SET_NO": 999, "REV_AT_EPOCH": 88757, "BSTAR": 0.0015994211, "MEAN_MOTION_DOT": 9.692e-05, "MEAN_MOTION_DDOT": 0}, "tle": {"line1": "1 33862U 97051AF  25342.22692267  .00009692  00000+0  15994-2 0  9991", "line2": "2 33862  86.4089  39.5200 0053817  84.2667 341.1904 14.69362788887576"}}, "geometry": {"type": "Point", "coordinates": [-131.5727076424696, -68.41296684492148]}}, {"type": "Feature", "properties": {"norad_id": 33866, "name": "IRIDIUM 33 DEB", "group": "iridium-33-debris", "lat": -49.951952146433825, "lon": -80.85638954784548, "alt_km": 767.9661699241669, "timestamp": "2025-12-08T17:43:05.321394+00:00", "meta": {"OBJECT_NAME": "IRIDIUM 33 DEB", "OBJECT_ID": "1997-051AK", "EPOCH": "2025-12-08T06:50:03.112800", "MEAN_MOTION": 14.25251233, "ECCENTRICITY": 0.01141225, "INCLINATION": 86.3003, "RA_OF_ASC_NODE": 94.9205, "ARG_OF_PERICENTER": 175.5894, "MEAN_ANOMALY": 247.9465, "EPHEMERIS_TYPE": 0, "CLASSIFICATION_TYPE": "U", "NORAD_CAT_ID": 33866, "ELEMENT_SET_NO": 999, "REV_AT_EPOCH": 86747, "BSTAR": 0.0011353012, "MEAN_MOTION_DOT": 2.876e-05, "MEAN_MOTION_DDOT": 0}, "tle": {"line1": "1 33866U 97051AK  25342.28475825  .00002876  00000+0  11353-2 0  9992", "line2": "2 33866  86.3003  94.9205 0114122 175.5894 247.9465 14.25251233867474"}}, "geometry": {"type": "Point", "coordinates": [-80.85638954784548, -49.951952146433825]}}]}